FLOCK 3P-71             
1 42024U 17008CE  17345.90489647  .00002967  00000-0  12692-3 0  9992
2 42024  97.4782  46.7608 0006996 299.3680  60.6858 15.23600241 44453
